{
    "links": {
        "self": "http://www.neowsapp.com/rest/v1/neo/54017183?api_key=iIulBulltgU6a56xZRHN4H3l9WmuAYTsLGpBGhQ2"
    },
    "id": "54017183",
    "neo_reference_id": "54017183",
    "name": "(2020 KE3)",
    "designation": "2020 KE3",
    "nasa_jpl_url": "http://ssd.jpl.nasa.gov/sbdb.cgi?sstr=54017183",
    "absolute_magnitude_h": 26.511,
    "estimated_diameter": {
        "kilometers": {
            "estimated_diameter_min": 0.0132542445,
            "estimated_diameter_max": 0.0296373916
        },
        "meters": {
            "estimated_diameter_min": 13.2542444659,
            "estimated_diameter_max": 29.6373916161
        },
        "miles": {
            "estimated_diameter_min": 0.0082358031,
            "estimated_diameter_max": 0.0184158157
        },
        "feet": {
            "estimated_diameter_min": 43.4850554134,
            "estimated_diameter_max": 97.2355399097
        }
    },
    "is_potentially_hazardous_asteroid": false,
    "close_approach_data": [
        {
            "close_approach_date": "2020-05-14",
            "close_approach_date_full": "2020-May-14 01:50",
            "epoch_date_close_approach": 1589421000000,
            "relative_velocity": {
                "kilometers_per_second": "9.4499984008",
                "kilometers_per_hour": "34019.9942428356",
                "miles_per_hour": "21138.701422722"
            },
            "miss_distance": {
                "astronomical": "0.0245085494",
                "lunar": "9.5338257166",
                "kilometers": "3666426.787029778",
                "miles": "2278211.9633678164"
            },
            "orbiting_body": "Earth"
        }
    ],
    "orbital_data": {
        "orbit_id": "3",
        "orbit_determination_date": "2020-05-25 06:40:59",
        "first_observation_date": "2020-05-21",
        "last_observation_date": "2020-05-24",
        "data_arc_in_days": 3,
        "observations_used": 19,
        "orbit_uncertainty": "8",
        "minimum_orbit_intersection": ".00965624",
        "jupiter_tisserand_invariant": "3.332",
        "epoch_osculation": "2458991.5",
        "eccentricity": ".5781627669126101",
        "semi_major_axis": "2.320153156551721",
        "inclination": "1.791137977111886",
        "ascending_node_longitude": "204.2226115889373",
        "orbital_period": "1290.842953045399",
        "perihelion_distance": ".9787269878987517",
        "perihelion_argument": ".2376884583017307",
        "aphelion_distance": "3.661579325204691",
        "perihelion_time": "2458960.869082211373",
        "mean_anomaly": "8.542580937433288",
        "mean_motion": ".2788875278365011",
        "equinox": "J2000",
        "orbit_class": {
            "orbit_class_type": "APO",
            "orbit_class_description": "Near-Earth asteroid orbits which cross the Earth’s orbit similar to that of 1862 Apollo",
            "orbit_class_range": "a (semi-major axis) > 1.0 AU; q (perihelion) < 1.017 AU"
        }
    },
    "is_sentry_object": false
}